{
    "links": {
        "self": "http://www.neowsapp.com/rest/v1/neo/3843428?api_key=iIulBulltgU6a56xZRHN4H3l9WmuAYTsLGpBGhQ2"
    },
    "id": "3843428",
    "neo_reference_id": "3843428",
    "name": "(2019 OW3)",
    "designation": "2019 OW3",
    "nasa_jpl_url": "http://ssd.jpl.nasa.gov/sbdb.cgi?sstr=3843428",
    "absolute_magnitude_h": 22.1,
    "estimated_diameter": {
        "kilometers": {
            "estimated_diameter_min": 0.1010543415,
            "estimated_diameter_max": 0.2259643771
        },
        "meters": {
            "estimated_diameter_min": 101.054341542,
            "estimated_diameter_max": 225.9643771094
        },
        "miles": {
            "estimated_diameter_min": 0.0627922373,
            "estimated_diameter_max": 0.140407711
        },
        "feet": {
            "estimated_diameter_min": 331.5431259047,
            "estimated_diameter_max": 741.3529669956
        }
    },
    "is_potentially_hazardous_asteroid": false,
    "close_approach_data": [
        {
            "close_approach_date": "2017-08-13",
            "close_approach_date_full": "2017-Aug-13 17:15",
            "epoch_date_close_approach": 1502644500000,
            "relative_velocity": {
                "kilometers_per_second": "25.0379334266",
                "kilometers_per_hour": "90136.5603357521",
                "miles_per_hour": "56007.3532819566"
            },
            "miss_distance": {
                "astronomical": "0.3235216497",
                "lunar": "125.8499217333",
                "kilometers": "48398149.694006139",
                "miles": "30073215.7063131582"
            },
            "orbiting_body": "Earth"
        },
        {
            "close_approach_date": "2019-07-27",
            "close_approach_date_full": "2019-Jul-27 11:11",
            "epoch_date_close_approach": 1564225860000,
            "relative_velocity": {
                "kilometers_per_second": "15.3879863256",
                "kilometers_per_hour": "55396.7507720862",
                "miles_per_hour": "34421.3866116888"
            },
            "miss_distance": {
                "astronomical": "0.0694882464",
                "lunar": "27.0309278496",
                "kilometers": "10395293.651475168",
                "miles": "6459335.9516385984"
            },
            "orbiting_body": "Earth"
        },
        {
            "close_approach_date": "2021-05-26",
            "close_approach_date_full": "2021-May-26 02:18",
            "epoch_date_close_approach": 1621995480000,
            "relative_velocity": {
                "kilometers_per_second": "12.4951581359",
                "kilometers_per_hour": "44982.5692894196",
                "miles_per_hour": "27950.4192343063"
            },
            "miss_distance": {
                "astronomical": "0.3327892972",
                "lunar": "129.4550366108",
                "kilometers": "49784570.019916964",
                "miles": "30934697.3493995432"
            },
            "orbiting_body": "Earth"
        },
        {
            "close_approach_date": "2023-03-05",
            "close_approach_date_full": "2023-Mar-05 22:14",
            "epoch_date_close_approach": 1678054440000,
            "relative_velocity": {
                "kilometers_per_second": "11.1393805436",
                "kilometers_per_hour": "40101.7699570061",
                "miles_per_hour": "24917.6803380075"
            },
            "miss_distance": {
                "astronomical": "0.2192498744",
                "lunar": "85.2882011416",
                "kilometers": "32799314.208007528",
                "miles": "20380548.7902507664"
            },
            "orbiting_body": "Earth"
        },
        {
            "close_approach_date": "2025-02-09",
            "close_approach_date_full": "2025-Feb-09 17:34",
            "epoch_date_close_approach": 1739122440000,
            "relative_velocity": {
                "kilometers_per_second": "20.6744396649",
                "kilometers_per_hour": "74427.982793793",
                "miles_per_hour": "46246.6540865099"
            },
            "miss_distance": {
                "astronomical": "0.1649886693",
                "lunar": "64.1805923577",
                "kilometers": "24681953.501414391",
                "miles": "15336654.7356489558"
            },
            "orbiting_body": "Earth"
        }
    ],
    "orbital_data": {
        "orbit_id": "10",
        "orbit_determination_date": "2019-09-03 05:59:59",
        "first_observation_date": "2019-07-29",
        "last_observation_date": "2019-09-02",
        "data_arc_in_days": 35,
        "observations_used": 49,
        "orbit_uncertainty": "7",
        "minimum_orbit_intersection": ".0578667",
        "jupiter_tisserand_invariant": "4.247",
        "epoch_osculation": "2459000.5",
        "eccentricity": ".5200162339745854",
        "semi_major_axis": "1.556468888642859",
        "inclination": "14.69875429071958",
        "ascending_node_longitude": "317.1090781469762",
        "orbital_period": "709.2659209740515",
        "perihelion_distance": ".7470797988721911",
        "perihelion_argument": "268.446547749456",
        "aphelion_distance": "2.365857978413527",
        "perihelion_time": "2459346.963208260929",
        "mean_anomaly": "184.146696907918",
        "mean_motion": ".5075670342452145",
        "equinox": "J2000",
        "orbit_class": {
            "orbit_class_type": "APO",
            "orbit_class_description": "Near-Earth asteroid orbits which cross the Earth’s orbit similar to that of 1862 Apollo",
            "orbit_class_range": "a (semi-major axis) > 1.0 AU; q (perihelion) < 1.017 AU"
        }
    },
    "is_sentry_object": false
}